[
    {
        "Altitude(m)": 559277.6980711203,
        "Argument of Periapsis(deg)": 0.013245982221427002,
        "Eccentricity": 0.0,
        "Inclination(deg)": 53.0,
        "Latitude(deg)": 50.41469495470954,
        "Longitude(deg)": -151.58636344933402,
        "Mean Anomaly(deg)": 105.63778573515516,
        "RAAN(deg)": 194.98028673705605,
        "Satellite Name": "Starlink Shell 1 863",
        "Satellite Number": 863,
        "Semi-Major Axis(m)": 6931778.249405717,
        "Time(s)": 380
    },
    {
        "Altitude(m)": 559228.459973111,
        "Argument of Periapsis(deg)": 0.013594560700938237,
        "Eccentricity": 0.0,
        "Inclination(deg)": 53.0,
        "Latitude(deg)": 50.199409576592274,
        "Longitude(deg)": -150.70821376387255,
        "Mean Anomaly(deg)": 106.26461693871192,
        "RAAN(deg)": 194.97976796697859,
        "Satellite Name": "Starlink Shell 1 863",
        "Satellite Number": 863,
        "Semi-Major Axis(m)": 6931778.249405717,
        "Time(s)": 390
    },
    {
        "Altitude(m)": 559177.5592730936,
        "Argument of Periapsis(deg)": 0.013943139180449475,
        "Eccentricity": 0.0,
        "Inclination(deg)": 53.0,
        "Latitude(deg)": 49.976908524925726,
        "Longitude(deg)": -149.83842740998713,
        "Mean Anomaly(deg)": 106.89144814226862,
        "RAAN(deg)": 194.9792491969011,
        "Satellite Name": "Starlink Shell 1 863",
        "Satellite Number": 863,
        "Semi-Major Axis(m)": 6931778.249405717,
        "Time(s)": 400
    },
    {
        "Altitude(m)": 559125.0269528884,
        "Argument of Periapsis(deg)": 0.014291717659960712,
        "Eccentricity": 0.0,
        "Inclination(deg)": 53.0,
        "Latitude(deg)": 49.74731324859643,
        "Longitude(deg)": -148.97713039016878,
        "Mean Anomaly(deg)": 107.51827934582535,
        "RAAN(deg)": 194.97873042682363,
        "Satellite Name": "Starlink Shell 1 863",
        "Satellite Number": 863,
        "Semi-Major Axis(m)": 6931778.249405717,
        "Time(s)": 410
    },
    {
        "Altitude(m)": 559070.895021143,
        "Argument of Periapsis(deg)": 0.014640296139471948,
        "Eccentricity": 0.0,
        "Inclination(deg)": 53.0,
        "Latitude(deg)": 49.510746301043504,
        "Longitude(deg)": -148.12443402616717,
        "Mean Anomaly(deg)": 108.14511054938201,
        "RAAN(deg)": 194.97821165674617,
        "Satellite Name": "Starlink Shell 1 863",
        "Satellite Number": 863,
        "Semi-Major Axis(m)": 6931778.249405717,
        "Time(s)": 420
    },
    {
        "Altitude(m)": 559015.1964976188,
        "Argument of Periapsis(deg)": 0.014988874618983185,
        "Eccentricity": 0.0,
        "Inclination(deg)": 53.0,
        "Latitude(deg)": 49.26733109974343,
        "Longitude(deg)": -147.28043484438112,
        "Mean Anomaly(deg)": 108.77194175293876,
        "RAAN(deg)": 194.97769288666868,
        "Satellite Name": "Starlink Shell 1 863",
        "Satellite Number": 863,
        "Semi-Major Axis(m)": 6931778.249405717,
        "Time(s)": 430
    },
    {
        "Altitude(m)": 558957.9653969111,
        "Argument of Periapsis(deg)": 0.015337453098494424,
        "Eccentricity": 0.0,
        "Inclination(deg)": 53.0,
        "Latitude(deg)": 49.0171916954599,
        "Longitude(deg)": -146.44521449871112,
        "Mean Anomaly(deg)": 109.39877295649548,
        "RAAN(deg)": 194.97717411659121,
        "Satellite Name": "Starlink Shell 1 863",
        "Satellite Number": 863,
        "Semi-Major Axis(m)": 6931778.249405717,
        "Time(s)": 440
    },
    {
        "Altitude(m)": 558899.2367117304,
        "Argument of Periapsis(deg)": 0.01568603157800566,
        "Eccentricity": 0.0,
        "Inclination(deg)": 53.0,
        "Latitude(deg)": 48.76045255175978,
        "Longitude(deg)": -145.61884123863808,
        "Mean Anomaly(deg)": 110.0256041600522,
        "RAAN(deg)": 194.97665534651372,
        "Satellite Name": "Starlink Shell 1 863",
        "Satellite Number": 863,
        "Semi-Major Axis(m)": 6931778.249405717,
        "Time(s)": 450
    },
    {
        "Altitude(m)": 558839.0463956352,
        "Argument of Periapsis(deg)": 0.0160346100575169,
        "Eccentricity": 0.0,
        "Inclination(deg)": 53.0,
        "Latitude(deg)": 48.49723833518073,
        "Longitude(deg)": -144.80136989181938,
        "Mean Anomaly(deg)": 110.65243536360889,
        "RAAN(deg)": 194.97613657643623,
        "Satellite Name": "Starlink Shell 1 863",
        "Satellite Number": 863,
        "Semi-Major Axis(m)": 6931778.249405717,
        "Time(s)": 460
    },
    {
        "Altitude(m)": 558777.4313453228,
        "Argument of Periapsis(deg)": 0.016383188537028134,
        "Eccentricity": 0.0,
        "Inclination(deg)": 53.0,
        "Latitude(deg)": 48.22767371634142,
        "Longitude(deg)": -143.9928418692886,
        "Mean Anomaly(deg)": 111.27926656716562,
        "RAAN(deg)": 194.97561780635877,
        "Satellite Name": "Starlink Shell 1 863",
        "Satellite Number": 863,
        "Semi-Major Axis(m)": 6931778.249405717,
        "Time(s)": 470
    },
    {
        "Altitude(m)": 558714.4293824056,
        "Argument of Periapsis(deg)": 0.01673176701653937,
        "Eccentricity": 0.0,
        "Inclination(deg)": 53.0,
        "Latitude(deg)": 47.95188318218996,
        "Longitude(deg)": -143.19328670156105,
        "Mean Anomaly(deg)": 111.90609777072234,
        "RAAN(deg)": 194.9750990362813,
        "Satellite Name": "Starlink Shell 1 863",
        "Satellite Number": 863,
        "Semi-Major Axis(m)": 6931778.249405717,
        "Time(s)": 480
    },
    {
        "Altitude(m)": 558650.079234737,
        "Argument of Periapsis(deg)": 0.017080345496050607,
        "Eccentricity": 0.0,
        "Inclination(deg)": 53.0,
        "Latitude(deg)": 47.669990859488436,
        "Longitude(deg)": -142.4027220755718,
        "Mean Anomaly(deg)": 112.53292897427909,
        "RAAN(deg)": 194.97458026620382,
        "Satellite Name": "Starlink Shell 1 863",
        "Satellite Number": 863,
        "Semi-Major Axis(m)": 6931778.249405717,
        "Time(s)": 490
    },
    {
        "Altitude(m)": 558584.4205172635,
        "Argument of Periapsis(deg)": 0.017428923975561842,
        "Eccentricity": 0.0,
        "Inclination(deg)": 53.0,
        "Latitude(deg)": 47.38212034955891,
        "Longitude(deg)": -141.62115388125898,
        "Mean Anomaly(deg)": 113.15976017783576,
        "RAAN(deg)": 194.97406149612635,
        "Satellite Name": "Starlink Shell 1 863",
        "Satellite Number": 863,
        "Semi-Major Axis(m)": 6931778.249405717,
        "Time(s)": 500
    },
    {
        "Altitude(m)": 558517.4937124333,
        "Argument of Periapsis(deg)": 0.01777750245507308,
        "Eccentricity": 0.0,
        "Inclination(deg)": 53.0,
        "Latitude(deg)": 47.088394574239274,
        "Longitude(deg)": -140.8485777768774,
        "Mean Anomaly(deg)": 113.78659138139247,
        "RAAN(deg)": 194.97354272604892,
        "Satellite Name": "Starlink Shell 1 863",
        "Satellite Number": 863,
        "Semi-Major Axis(m)": 6931778.249405717,
        "Time(s)": 510
    },
    {
        "Altitude(m)": 558449.3401501331,
        "Argument of Periapsis(deg)": 0.018126080934584315,
        "Eccentricity": 0.0,
        "Inclination(deg)": 53.0,
        "Latitude(deg)": 46.78893563292636,
        "Longitude(deg)": -140.0849792438122,
        "Mean Anomaly(deg)": 114.41342258494917,
        "RAAN(deg)": 194.97302395597143,
        "Satellite Name": "Starlink Shell 1 863",
        "Satellite Number": 863,
        "Semi-Major Axis(m)": 6931778.249405717,
        "Time(s)": 520
    },
    {
        "Altitude(m)": 558380.001987227,
        "Argument of Periapsis(deg)": 0.018474659414095554,
        "Eccentricity": 0.0,
        "Inclination(deg)": 53.0,
        "Latitude(deg)": 46.48386467052783,
        "Longitude(deg)": -139.33033364056593,
        "Mean Anomaly(deg)": 115.04025378850595,
        "RAAN(deg)": 194.97250518589397,
        "Satellite Name": "Starlink Shell 1 863",
        "Satellite Number": 863,
        "Semi-Major Axis(m)": 6931778.249405717,
        "Time(s)": 530
    },
    {
        "Altitude(m)": 558309.522186619,
        "Argument of Periapsis(deg)": 0.018823237893606792,
        "Eccentricity": 0.0,
        "Inclination(deg)": 53.0,
        "Latitude(deg)": 46.1733017560949,
        "Longitude(deg)": -138.58460776589445,
        "Mean Anomaly(deg)": 115.66708499206261,
        "RAAN(deg)": 194.97198641581647,
        "Satellite Name": "Starlink Shell 1 863",
        "Satellite Number": 863,
        "Semi-Major Axis(m)": 6931778.249405717,
        "Time(s)": 540
    },
    {
        "Altitude(m)": 558237.9444959308,
        "Argument of Periapsis(deg)": 0.019171816373118027,
        "Eccentricity": 0.0,
        "Inclination(deg)": 53.0,
        "Latitude(deg)": 45.85736577185359,
        "Longitude(deg)": -137.8477599027438,
        "Mean Anomaly(deg)": 116.29391619561936,
        "RAAN(deg)": 194.971467645739,
        "Satellite Name": "Starlink Shell 1 863",
        "Satellite Number": 863,
        "Semi-Major Axis(m)": 6931778.249405717,
        "Time(s)": 550
    },
    {
        "Altitude(m)": 558165.3134257573,
        "Argument of Periapsis(deg)": 0.019520394852629266,
        "Eccentricity": 0.0,
        "Inclination(deg)": 53.0,
        "Latitude(deg)": 45.5361743123228,
        "Longitude(deg)": -137.11973985354777,
        "Mean Anomaly(deg)": 116.9207473991761,
        "RAAN(deg)": 194.97094887566152,
        "Satellite Name": "Starlink Shell 1 863",
        "Satellite Number": 863,
        "Semi-Major Axis(m)": 6931778.249405717,
        "Time(s)": 560
    }
]